TDRS 3                  
1 19548U 88091B   26165.82170887 -.00000301  00000+0  00000+0 0  9997
2 19548  12.6037 341.0182 0038413 355.9974 173.0838  1.00273853125364
FLTSATCOM 8 (USA 46)    
1 20253U 89077A   26165.92738609 -.00000370  00000+0  00000+0 0  9996
2 20253  12.4223 351.1789 0004485  54.2018 317.3409  1.00278654260540
SKYNET 4C               
1 20776U 90079A   26162.20198485  .00000132  00000+0  00000+0 0  9995
2 20776  13.3423 349.8525 0002401  96.2300 279.5546  1.00274124130837
TDRS 5                  
1 21639U 91054B   26165.72678358  .00000081  00000+0  00000+0 0  9993
2 21639  14.0716 353.7977 0006435 274.7101  88.4604  1.00273109127691
TDRS 6                  
1 22314U 93003B   26165.39443913 -.00000298  00000+0  00000+0 0  9991
2 22314  14.1828 357.0810 0007806 177.9743 183.8349  1.00272404122383
UFO 2 (USA 95)          
1 22787U 93056A   26166.19346161  .00000121  00000+0  00000+0 0  9993
2 22787  11.8942   3.5672 0005906   8.0693 350.1507  1.00275775118524
USA 99 (MILSTAR-1 1)    
1 22988U 94009A   26165.83030777 -.00000131  00000+0  00000+0 0  9990
2 22988  17.6234  27.7308 0001108 217.7482 334.6973  0.98722565 32927
UFO 4 (USA 108)         
1 23467U 95003A   26165.79414875 -.00000025  00000+0  00000+0 0  9990
2 23467   9.6995  13.2397 0003115  64.7276 283.1835  1.00272174114920
TDRS 7                  
1 23613U 95035B   26165.99145010 -.00000239  00000+0  00000+0 0  9999
2 23613  13.3780 348.2065 0011070  78.1449 282.7517  1.00265040113239
USA 115 (MILSTAR-1 2)   
1 23712U 95060A   26165.58244845 -.00000190  00000+0  00000+0 0  9994
2 23712  14.0720   3.7685 0001528 143.5162 230.1918  1.00364609 32860
INMARSAT 3-F1           
1 23839U 96020A   26166.16572440 -.00000136  00000+0  00000+0 0  9991
2 23839  10.5970  46.6542 0003757  48.3513 135.0772  0.99978916110232
INMARSAT 3-F2           
1 24307U 96053A   26165.98725532 -.00000246  00000+0  00000+0 0  9991
2 24307   9.8523  53.9601 0006724  28.0007 328.2328  1.00003553108896
INMARSAT 3-F3           
1 24674U 96070A   26165.76895216  .00000131  00000+0  00000+0 0  9992
2 24674  10.3132  49.6776 0003409  23.1760 152.0731  0.99981262107888
AMC-3                   
1 24936U 97050A   26166.23495211  .00000066  00000+0  00000+0 0  9993
2 24936   8.1598  64.0069 0004037  26.3384 135.9113  0.99061182 52413
USA 134                 
1 25019U 97065A   26166.30867830 -.00000069  00000+0  00000+0 0  9994
2 25019  12.7820  21.7376 0003351 335.7312 264.9866  1.00269020 32939
INMARSAT 3-F5           
1 25153U 98006B   26166.03447624 -.00000294  00000+0  00000+0 0  9994
2 25153   9.6886  53.2812 0004407  27.1777 141.2768  1.00268406103877
ABS-6                   
1 25924U 99053A   26166.32709416 -.00000115  00000+0  00000+0 0  9997
2 25924   0.0268 286.2397 0003841 166.1712  87.9708  1.00277691 97825
UFO 10 (USA 146)        
1 25967U 99063A   26165.39903249 -.00000189  00000+0  00000+0 0  9992
2 25967   9.8460  27.2269 0002050  34.4628 321.7351  1.00271694 97312
ASIASTAR                
1 26107U 00016A   26165.78060189 -.00000335  00000+0  00000+0 0  9992
2 26107   9.1240  58.1796 0004406  26.0908 204.8356  1.00269826 95892
USA 149 (DSP 20)        
1 26356U 00024A   26166.21483294  .00000089  00000+0  00000+0 0  9997
2 26356  13.1692  11.8673 0001914 306.4603 217.1148  1.00273779 32891
TDRS 8                  
1 26388U 00034A   26165.76603400 -.00000197  00000+0  00000+0 0  9996
2 26388  12.6799  31.3437 0004670  17.4245 214.7083  1.00267633 95157
NSS-11                  
1 26554U 00059A   26166.22258172  .00000027  00000+0  00000+0 0  9993
2 26554   2.1217  81.4108 0002773 349.5496  88.6747  1.00270676 41271
USA 153                 
1 26575U 00065A   26165.66527089 -.00000328  00000+0  00000+0 0  9991
2 26575  11.6203  35.4433 0002998  47.1332 194.3859  1.00270043 32900
AMC-6                   
1 26580U 00067A   26166.22368943  .00000092  00000+0  00000+0 0  9991
2 26580   0.1477  83.0742 0003447  12.8369 113.0954  1.00272675 93873
USA 157 (MILSTAR-2 2)   
1 26715U 01009A   26165.73025025  .00000106  00000+0  00000+0 0  9990
2 26715  11.5401  19.7803 0039342 177.6408 178.4209  1.00273484 32912
INTELSAT 902 (IS-902)   
1 26900U 01039A   26166.17755505 -.00000284  00000+0  00000+0 0  9999
2 26900   6.1123  71.8090 0004488   8.9275 196.5439  1.00270716 90675
USA 164 (MILSTAR-2 3)   
1 27168U 02001A   26166.26274124  .00000094  00000+0  00000+0 0  9997
2 27168  11.1773  21.9202 0098968   8.3272 346.9158  1.00276736 32939
INTELSAT 904 (IS-904)   
1 27380U 02007A   26166.03889626 -.00000226  00000+0  00000+0 0  9991
2 27380   6.9148  69.2101 0006460   4.6857 171.9453  1.00270923 51746
DIRECTV 5 (TEMPO 1)     
1 27426U 02023A   26166.23720545 -.00000057  00000+0  00000+0 0  9998
2 27426   4.8730  75.3346 0003239  22.8606 140.6192  1.00271492 88100
INTELSAT 905 (IS-905)   
1 27438U 02027A   26165.59827877  .00000095  00000+0  00000+0 0  9990
2 27438   6.7471  69.8304 0003797  20.9273 250.3045  1.00272386 51330
GALAXY 3C (G-3C)        
1 27445U 02030A   26166.24023880 -.00000151  00000+0  00000+0 0  9991
2 27445   3.7268  78.0023 0001535  33.4688 143.6925  1.00271067 46471
